ONEWEB-0670             
1 55829U 23029AK  24098.90989609 -.00000109  00000+0 -32929-3 0  9997
2 55829  87.8907  88.9729 0001709  69.4351 290.6962 13.14499962 54290
ONEWEB-0671             
1 55830U 23029AL  24098.74144696  .00000111  00000+0  24597-3 0  9993
2 55830  87.9099 104.2981 0001749  81.9081 278.2251 13.19723881 53321
ONEWEB-0674             
1 55833U 23029AP  24098.95429944  .00000218  00000+0  55413-3 0  9990
2 55833  87.8901  88.9731 0001873  68.0459 292.0870 13.14505024 54288
ONEWEB-0720             
1 55835U 23029AR  24098.95309243  .00000189  00000+0  43869-3 0  9990
2 55835  87.9102 104.2550 0001394  94.4317 265.6975 13.19723857 53292
ONEWEB-0537             
1 56046U 23043A   24098.87061497  .00000098  00000+0  22317-3 0  9992
2 56046  87.9143  28.0524 0002154  86.3823 273.7555 13.16596626 53656
